HORYU-4                 
1 41340U 16012D   21041.87284275  .00000470  00000-0  28646-4 0  9994
2 41340  31.0042 253.2183 0013809 354.8598   5.1895 15.01738097273743
E-ST@R-II               
1 41459U 16025D   21042.05745627  .00002210  00000-0  11139-3 0  9995
2 41459  98.1222 170.9445 0163351 128.2295 233.3731 15.07439277263375
AAUSAT 4                
1 41460U 16025E   21042.06611268  .00003613  00000-0  17245-3 0  9993
2 41460  98.1207 174.2239 0150894 114.1533 247.5556 15.10220099263630
BEESAT-4                
1 41619U 16040W   21041.83893637  .00001401  00000-0  59049-4 0  9994
2 41619  97.2886 101.4047 0012279  63.6935 296.5563 15.24894172245711
CANX-7                  
1 41788U 16059F   21042.24766318  .00007762  00000-0  95910-3 0  9994
2 41788  98.2553 142.9132 0027818 241.1646 118.6638 14.82826658235142
RAVAN                   
1 41849U 16067B   21041.89866292 -.00000172  00000-0 -90578-5 0  9990
2 41849  97.9502 162.1275 0008291 156.8038 203.3560 14.98870726232339
CELTEE 1                
1 41850U 16067C   21041.78758185  .00000364  00000-0  36605-4 0  9992
2 41850  97.9402 158.9894 0009306 167.0868 193.0594 14.97346342232167
OPTICUBE 04             
1 41851U 16067D   21041.89633762 -.00000434  00000-0 -32355-4 0  9996
2 41851  97.9397 158.5786 0008897 168.7304 191.4118 14.97039721232157
AEROCUBE 8D             
1 41852U 16067E   21041.77608913  .00000097  00000-0  13689-4 0  9996
2 41852  97.9393 158.3115 0009886 171.2567 188.8828 14.97094937232111
AEROCUBE 8C             
1 41853U 16067F   21041.54586180  .00000407  00000-0  40584-4 0  9992
2 41853  97.9401 157.9583 0010114 170.1086 190.0336 14.97069033232079
PROMETHEUS 2-1          
1 41854U 16067G   21042.12598464  .00000802  00000-0  74061-4 0  9992
2 41854  97.9401 159.0441 0010860 168.6346 191.5122 14.97482812232180
PROMETHEUS 2-3          
1 41855U 16067H   21041.79062707  .00000726  00000-0  67501-4 0  9997
2 41855  97.9402 158.7484 0011002 170.6216 189.5213 14.97496323232138
INS-1B                  
1 41954U 17008G   21042.16794379  .00001318  00000-0  54610-4 0  9997
2 41954  97.3249 107.9882 0009176 168.3359 191.8094 15.25615805221759
BGUSAT                  
1 41999U 17008BD  21041.89480938  .00002292  00000-0  84130-4 0  9990
2 41999  97.3399 113.3452 0007988 172.5812 187.5547 15.28948419221363
DIDO-2                  
1 42000U 17008BE  21042.13134671  .00000918  00000-0  39551-4 0  9992
2 42000  97.3254 108.3288 0008017 186.7211 173.3921 15.25023897221137
PEASSS                  
1 42015U 17008BV  21042.17970864  .00001218  00000-0  49606-4 0  9990
2 42015  97.3286 110.5043 0005996 183.5262 176.5935 15.26371928221756
AL-FARABI 1             
1 42016U 17008BW  21041.85854264  .00001598  00000-0  62228-4 0  9996
2 42016  97.3328 111.6775 0005844 182.9004 177.2202 15.27431246221900
NAYIF-1 (EO-88)         
1 42017U 17008BX  21041.63391565  .00001639  00000-0  63670-4 0  9991
2 42017  97.3322 111.4654 0005882 183.1734 176.9469 15.27479184221896
UCLSAT                  
1 42765U 17036A   21041.58806463  .00001259  00000-0  54302-4 0  9994
2 42765  97.2691  95.0740 0009333 265.1402  94.8770 15.24307031202840
LITUANICASAT-2          
1 42768U 17036D   21041.77413906  .00001887  00000-0  77468-4 0  9999
2 42768  97.2762  95.6957 0012550 251.4275 108.5601 15.25362764202154
AALTO-1                 
1 42775U 17036L   21041.57399267  .00000769  00000-0  36248-4 0  9997
2 42775  97.2666  92.1585 0011971 260.6115  99.3768 15.22331200201894
URSA MAIOR              
1 42776U 17036M   21041.92570141  .00000818  00000-0  38142-4 0  9999
2 42776  97.2678  92.8951 0011786 258.5709 101.4204 15.22565877201968
COMPASS 2               
1 42777U 17036N   21041.57387133  .00001585  00000-0  66337-4 0  9997
2 42777  97.2747  95.7870 0010260 253.6557 106.3553 15.24955936202076
DIAMOND RED             
1 42783U 17036U   21041.56856317  .00000965  00000-0  43325-4 0  9991
2 42783  97.2693  94.0579 0010070 268.8437  91.1647 15.23461883201992
PEGASUS                 
1 42784U 17036V   21041.92825310  .00001122  00000-0  49239-4 0  9997
2 42784  97.2695  94.9912 0009900 265.3172  94.6935 15.23930203202089
DIAMOND GREEN           
1 42785U 17036W   21041.56765742  .00001018  00000-0  45560-4 0  9997
2 42785  97.2695  94.0996 0009969 269.5941  90.4154 15.23460882201984
DIAMOND BLUE            
1 42786U 17036X   21041.82934550  .00000966  00000-0  43387-4 0  9998
2 42786  97.2694  94.3471 0009827 268.7639  91.2473 15.23460190202103
NUDTSAT                 
1 42787U 17036Y   21041.95324589  .00002295  00000-0  93038-4 0  9993
2 42787  97.2747  97.0293 0009043 261.8644  98.1568 15.25607533202045
SUCHAI                  
1 42788U 17036Z   21041.59493140  .00001328  00000-0  56629-4 0  9995
2 42788  97.2707  95.5005 0009428 263.7379  96.2785 15.24616445202152
SKCUBE                  
1 42789U 17036AA  21041.60399630  .00001263  00000-0  54309-4 0  9998
2 42789  97.2701  95.2783 0009339 264.3984  95.6189 15.24398015202068
VZLUSAT-1               
1 42790U 17036AB  21041.87991379  .00001557  00000-0  64063-4 0  9991
2 42790  97.2732  96.9459 0008765 258.2796 101.7459 15.25579571202188
ROBUSTA-1B              
1 42792U 17036AD  21041.59186515  .00001327  00000-0  56595-4 0  9996
2 42792  97.2704  95.5980 0008910 264.4984  95.5238 15.24615838202094
CICERO 6                
1 42793U 17036AE  21041.56706396  .00000855  00000-0  38454-4 0  9998
2 42793  97.2678  94.6283 0008320 269.0958  90.9326 15.23693478202113
D-SAT                   
1 42794U 17036AF  21042.03221326  .00000213  00000-0  23935-4 0  9993
2 42794  97.4725  68.5710 0124324 288.5938  70.1812 14.91449497198243
CORVUS BC2              
1 42846U 17042X   21041.90170095 -.00000038  00000-0  14875-5 0  9999
2 42846  97.4921 280.2472 0009077 192.7623 167.3368 14.92225390194966
CORVUS BC1              
1 42847U 17042Y   21041.88114452  .00000258  00000-0  30446-4 0  9996
2 42847  97.4924 280.4416 0008767 191.8116 168.2899 14.92327604194962
MIRATA                  
1 43015U 17073C   21041.67062192  .00001532  00000-0  12228-3 0  9991
2 43015  97.7128 310.7963 0251155 351.4307   8.2654 14.80295295174451
MAKERSAT 0              
1 43016U 17073D   21042.18741237  .00001075  00000-0  87839-4 0  9996
2 43016  97.7163 311.4023 0254441 351.4723   8.2203 14.79678895174492
DELLINGR (RBLE)         
1 43021U 98067NJ  21042.15846344  .00035492  00000-0  15624-3 0  9998
2 43021  51.6307 130.9492 0001839 300.1625  59.9196 15.84183150184503
AEROCUBE 7B (OCSD B)    
1 43042U 17071F   21041.89301559  .00004554  00000-0  99238-4 0  9990
2 43042  51.6383 334.5697 0003623 186.8847 173.2091 15.46354811179237
AEROCUBE 7C (OCSD C)    
1 43043U 17071G   21041.90309985  .00003934  00000-0  87237-4 0  9991
2 43043  51.6379 334.6504 0003772 192.0216 168.0682 15.46243841179200
CHEFSAT                 
1 43044U 17071H   21041.92348211  .00011831  00000-0  18426-3 0  9997
2 43044  51.6367 308.9136 0003108 193.0459 167.0452 15.54341647179550
ASGARDIA 1              
1 43049U 17071N   21042.15700229  .00004082  00000-0  90353-4 0  9999
2 43049  51.6397 332.7015 0001476 198.0782 162.0153 15.46184649179246
ISARA                   
1 43050U 17071P   21041.91803000  .00008039  00000-0  13605-3 0  9995
2 43050  51.6347 313.9409 0001297 179.5707 180.5284 15.52530479179482
PROPCUBE 2 (FAUNA)      
1 43052U 17071R   21041.80032803  .00004920  00000-0  10466-3 0  9997
2 43052  51.6384 331.8292 0001464 190.7763 169.3194 15.46874079179224
CORVUS BC3              
1 43118U 18004H   21041.63633975  .00000790  00000-0  35672-4 0  9993
2 43118  97.4178 115.6709 0008662 300.2949  59.7431 15.23887173171264
MICROMAS-2A             
1 43131U 18004W   21042.16970519  .00001780  00000-0  71031-4 0  9994
2 43131  97.4244 118.9065 0007115 292.4638  67.5846 15.26485971171498
SPACEBEE-4              
1 43139U 18004AE  21041.90144300  .00002571  00000-0  95947-4 0  9995
2 43139  97.4298 120.5056 0006370 292.0852  67.9710 15.28315619171554
SPACEBEE-3              
1 43140U 18004AF  21041.87308601  .00003260  00000-0  11604-3 0  9992
2 43140  97.4322 121.6212 0005940 287.5213  72.5378 15.29677650171618
SPACEBEE-2              
1 43141U 18004AG  21041.86040216  .00003508  00000-0  12289-3 0  9992
2 43141  97.4339 122.0481 0005859 285.8656  74.1938 15.30144470171634
SPACEBEE-1              
1 43142U 18004AH  21041.89103157  .00003843  00000-0  13208-3 0  9994
2 43142  97.4346 122.5158 0005751 284.3505  75.7097 15.30703652171655
CICERO 7                
1 43143U 18004AJ  21041.84318500  .00001570  00000-0  63067-4 0  9994
2 43143  97.4221 118.6925 0005548 307.2214  52.8518 15.26431050171460
GOMX-4B                 
1 43196U 18015E   21041.81647878  .00000403  00000-0  19188-4 0  9993
2 43196  97.4648 175.0788 0018017 350.7583   9.3320 15.24726010168210
GOMX-4A                 
1 43197U 18015F   21042.20187593  .00001013  00000-0  43319-4 0  9992
2 43197  97.4629 175.6380 0018344 350.7081 128.8721 15.25056764168293
TEMPEST-D               
1 43547U 98067NV  21041.93829733  .00051836  00000-0  36096-3 0  9995
2 43547  51.6335 181.5034 0004528 240.2609 119.7939 15.73821882146894
AEROCUBE 12A            
1 43556U 18046C   21041.27947979  .00002262  00000-0  86584-4 0  9991
2 43556  51.6410  42.0124 0008469  68.3066 291.8816 15.30945064143797
AEROCUBE 12B            
1 43557U 18046D   21041.39498697  .00001799  00000-0  72321-4 0  9991
2 43557  51.6428  42.7600 0008573  67.9832 292.2058 15.30481980143745
SURFSAT                 
1 43614U 18070B   21041.70047043  .00002727  00000-0  66265-4 0  9994
2 43614  93.0233 253.3427 0016498 128.7280 231.5453 15.40919490135141
CP7 (DAVE)              
1 43615U 18070C   21042.08552251  .00002610  00000-0  63930-4 0  9996
2 43615  93.0236 253.4739 0016717 127.3393 232.9388 15.40678647135199
